{"type": "FeatureCollection", "features": [ {"type": "Feature", "properties": {"norad_id": 35462, "name": "COSMOS 2251 DEB", "group": "cosmos-2251-debris", "lat": -22.867176135982078, "lon": -92.33182713966963, "alt_km": 743.0946671840748, "timestamp": "2025-12-09T11:33:55.197359+00:00", "meta": {"OBJECT_NAME": "COSMOS 2251 DEB", "OBJECT_ID": "1993-036ALG", "EPOCH": "2025-12-08T12:09:24.774336", "MEAN_MOTION": 14.29237925, "ECCENTRICITY": 0.00868955, "INCLINATION": 74.0371, "RA_OF_ASC_NODE": 276.3719, "ARG_OF_PERICENTER": 312.4106, "MEAN_ANOMALY": 46.9712, "EPHEMERIS_TYPE": 0, "CLASSIFICATION_TYPE": "U", "NORAD_CAT_ID": 35462, "ELEMENT_SET_NO": 999, "REV_AT_EPOCH": 66320, "BSTAR": 0.0026621156, "MEAN_MOTION_DOT": 7.028e-05, "MEAN_MOTION_DDOT": 0}, "tle": {"line1": "1 35462U 93036ALG 25342.50653674  .00007028  00000+0  26621-2 0  9998", "line2": "2 35462  74.0371 276.3719 0086895 312.4106  46.9712 14.29237925663202"}}, "geometry": {"type": "Point", "coordinates": [-92.33182713966963, -22.867176135982078]}}, {"type": "Feature", "properties": {"norad_id": 35465, "name": "COSMOS 2251 DEB", "group": "cosmos-2251-debris", "lat": -36.449345084870956, "lon": 35.3443823315077, "alt_km": 787.6503502309079, "timestamp": "2025-12-09T11:33:55.197369+00:00", "meta": {"OBJECT_NAME": "COSMOS 2251 DEB", "OBJECT_ID": "1993-036ALK", "EPOCH": "2025-11-29T22:48:34.232544", "MEAN_MOTION": 14.44263019, "ECCENTRICITY": 0.00634289, "INCLINATION": 73.9997, "RA_OF_ASC_NODE": 220.8763, "ARG_OF_PERICENTER": 24.0529, "MEAN_ANOMALY": 336.3567, "EPHEMERIS_TYPE": 0, "CLASSIFICATION_TYPE": "U", "NORAD_CAT_ID": 35465, "ELEMENT_SET_NO": 999, "REV_AT_EPOCH": 87057, "BSTAR": 0.00049692277, "MEAN_MOTION_DOT": 1.723e-05, "MEAN_MOTION_DDOT": 0}, "tle": {"line1": "1 35465U 93036ALK 25333.95039621  .00001723  00000+0  49692-3 0  9990", "line2": "2 35465  73.9997 220.8763 0063428  24.0529 336.3567 14.44263019870576"}}, "geometry": {"type": "Point", "coordinates": [35.3443823315077, -36.449345084870956]}}, {"type": "Feature", "properties": {"norad_id": 35469, "name": "COSMOS 2251 DEB", "group": "cosmos-2251-debris", "lat": -9.149871905172061, "lon": 27.349876372395947, "alt_km": 782.7874015854495, "timestamp": "2025-12-09T11:33:55.197379+00:00", "meta": {"OBJECT_NAME": "COSMOS 2251 DEB", "OBJECT_ID": "1993-036ALP", "EPOCH": "2025-12-07T11:35:01.685760", "MEAN_MOTION": 14.4981221, "ECCENTRICITY": 0.00771882, "INCLINATION": 74.0177, "RA_OF_ASC_NODE": 33.7518, "ARG_OF_PERICENTER": 190.4188, "MEAN_ANOMALY": 169.5378, "EPHEMERIS_TYPE": 0, "CLASSIFICATION_TYPE": "U", "NORAD_CAT_ID": 35469, "ELEMENT_SET_NO": 999, "REV_AT_EPOCH": 88035, "BSTAR": 0.00021613901, "MEAN_MOTION_DOT": 8.36e-06, "MEAN_MOTION_DDOT": 0}, "tle": {"line1": "1 35469U 93036ALP 25341.48265840  .00000836  00000+0  21614-3 0  9993", "line2": "2 35469  74.0177  33.7518 0077188 190.4188 169.5378 14.49812210880359"}}, "geometry": {"type": "Point", "coordinates": [27.349876372395947, -9.149871905172061]}}, {"type": "Feature", "properties": {"norad_id": 35475, "name": "COSMOS 2251 DEB", "group": "cosmos-2251-debris", "lat": -27.74120584696612, "lon": 163.2755833795789, "alt_km": 666.7705013291061, "timestamp": "2025-12-09T11:33:55.197389+00:00", "meta": {"OBJECT_NAME": "COSMOS 2251 DEB", "OBJECT_ID": "1993-036ALV", "EPOCH": "2025-12-08T19:21:33.372000", "MEAN_MOTION": 14.69600335, "ECCENTRICITY": 0.00208188, "INCLINATION": 74.0214, "RA_OF_ASC_NODE": 173.2518, "ARG_OF_PERICENTER": 246.2805, "MEAN_ANOMALY": 113.6182, "EPHEMERIS_TYPE": 0, "CLASSIFICATION_TYPE": "U", "NORAD_CAT_ID": 35475, "ELEMENT_SET_NO": 999, "REV_AT_EPOCH": 65559, "BSTAR": 0.0025427161, "MEAN_MOTION_DOT": 0.00015164, "MEAN_MOTION_DDOT": 0}, "tle": {"line1": "1 35475U 93036ALV 25342.80663625  .00015164  00000+0  25427-2 0  9995", "line2": "2 35475  74.0214 173.2518 0020818 246.2805 113.6182 14.69600335655596"}}, "geometry": {"type": "Point", "coordinates": [163.2755833795789, -27.74120584696612]}}, {"type": "Feature", "properties": {"norad_id": 35476, "name": "COSMOS 2251 DEB", "group": "cosmos-2251-debris", "lat": 66.48023764907329, "lon": -154.00708411838562, "alt_km": 629.762488242276, "timestamp": "2025-12-09T11:33:55.197399+00:00", "meta": {"OBJECT_NAME": "COSMOS 2251 DEB", "OBJECT_ID": "1993-036ALW", "EPOCH": "2025-12-08T12:22:21.105120", "MEAN_MOTION": 14.75530795, "ECCENTRICITY": 0.00174354, "INCLINATION": 73.9779, "RA_OF_ASC_NODE": 69.2078, "ARG_OF_PERICENTER": 53.0325, "MEAN_ANOMALY": 323.0323, "EPHEMERIS_TYPE": 0, "CLASSIFICATION_TYPE": "U", "NORAD_CAT_ID": 35476, "ELEMENT_SET_NO": 999, "REV_AT_EPOCH": 87825, "BSTAR": 0.0023723652, "MEAN_MOTION_DOT": 0.00016205, "MEAN_MOTION_DDOT": 0}, "tle": {"line1": "1 35476U 93036ALW 25342.51552205  .00016205  00000+0  23724-2 0  9990", "line2": "2 35476  73.9779  69.2078 0017435  53.0325 323.0323 14.75530795878251"}}, "geometry": {"type": "Point", "coordinates": [-154.00708411838562, 66.48023764907329]}}, {"type": "Feature", "properties": {"norad_id": 35580, "name": "COSMOS 2251 DEB", "group": "cosmos-2251-debris", "lat": -21.95940453445474, "lon": 10.94970523306422, "alt_km": 753.3882479019821, "timestamp": "2025-12-09T11:33:55.197409+00:00", "meta": {"OBJECT_NAME": "COSMOS 2251 DEB", "OBJECT_ID": "1993-036ALX", "EPOCH": "2025-12-06T21:51:49.269024", "MEAN_MOTION": 13.83821036, "ECCENTRICITY": 0.02818687, "INCLINATION": 73.9, "RA_OF_ASC_NODE": 188.633, "ARG_OF_PERICENTER": 195.0077, "MEAN_ANOMALY": 164.256, "EPHEMERIS_TYPE": 0, "CLASSIFICATION_TYPE": "U", "NORAD_CAT_ID": 35580, "ELEMENT_SET_NO": 999, "REV_AT_EPOCH": 62176, "BSTAR": 0.0026984958, "MEAN_MOTION_DOT": 4.042e-05, "MEAN_MOTION_DDOT": 0}, "tle": {"line1": "1 35580U 93036ALX 25340.91098691  .00004042  00000+0  26985-2 0  9990", "line2": "2 35580  73.9000 188.6330 0281868 195.0077 164.2560 13.83821036621764"}}, "geometry": {"type": "Point", "coordinates": [10.94970523306422, -21.95940453445474]}}, {"type": "Feature", "properties": {"norad_id": 35583, "name": "COSMOS 2251 DEB", "group": "cosmos-2251-debris", "lat": -48.82781294795308, "lon": 56.55624748033527, "alt_km": 777.2435146276557, "timestamp": "2025-12-09T11:33:55.197418+00:00", "meta": {"OBJECT_NAME": "COSMOS 2251 DEB", "OBJECT_ID": "1993-036AMA", "EPOCH": "2025-12-09T01:32:45.405024", "MEAN_MOTION": 13.55325577, "ECCENTRICITY": 0.0385644, "INCLINATION": 73.9171, "RA_OF_ASC_NODE": 217.9725, "ARG_OF_PERICENTER": 242.9971, "MEAN_ANOMALY": 113.128, "EPHEMERIS_TYPE": 0, "CLASSIFICATION_TYPE": "U", "NORAD_CAT_ID": 35583, "ELEMENT_SET_NO": 999, "REV_AT_EPOCH": 82362, "BSTAR": 0.00076651, "MEAN_MOTION_DOT": 8.31e-06, "MEAN_MOTION_DDOT": 0}, "tle": {"line1": "1 35583U 93036AMA 25343.06441441  .00000831  00000+0  76651-3 0  9995", "line2": "2 35583  73.9171 217.9725 0385644 242.9971 113.1280 13.55325577823621"}}, "geometry": {"type": "Point", "coordinates": [56.55624748033527, -48.82781294795308]}}, {"type": "Feature", "properties": {"norad_id": 35585, "name": "COSMOS 2251 DEB", "group": "cosmos-2251-debris", "lat": -41.66398888782548, "lon": -20.969271641391774, "alt_km": 834.9338710123602, "timestamp": "2025-12-09T11:33:55.197428+00:00", "meta": {"OBJECT_NAME": "COSMOS 2251 DEB", "OBJECT_ID": "1993-036AMC", "EPOCH": "2025-12-08T12:07:10.517376", "MEAN_MOTION": 13.75229968, "ECCENTRICITY": 0.03104895, "INCLINATION": 73.9712, "RA_OF_ASC_NODE": 355.4819, "ARG_OF_PERICENTER": 268.5386, "MEAN_ANOMALY": 250.4436, "EPHEMERIS_TYPE": 0, "CLASSIFICATION_TYPE": "U", "NORAD_CAT_ID": 35585, "ELEMENT_SET_NO": 999, "REV_AT_EPOCH": 64005, "BSTAR": 0.0019971836, "MEAN_MOTION_DOT": 2.695e-05, "MEAN_MOTION_DDOT": 0}, "tle": {"line1": "1 35585U 93036AMC 25342.50498284  .00002695  00000+0  19972-2 0  9994", "line2": "2 35585  73.9712 355.4819 0310489 268.5386 250.4436 13.75229968640056"}}, "geometry": {"type": "Point", "coordinates": [-20.969271641391774, -41.66398888782548]}}, {"type": "Feature", "properties": {"norad_id": 35586, "name": "COSMOS 2251 DEB", "group": "cosmos-2251-debris", "lat": 47.54293665679509, "lon": -34.04872106726314, "alt_km": 1261.1313774037744, "timestamp": "2025-12-09T11:33:55.197439+00:00", "meta": {"OBJECT_NAME": "COSMOS 2251 DEB", "OBJECT_ID": "1993-036AMD", "EPOCH": "2025-12-02T16:49:03.133344", "MEAN_MOTION": 13.52074918, "ECCENTRICITY": 0.04051153, "INCLINATION": 74.0205, "RA_OF_ASC_NODE": 318.5607, "ARG_OF_PERICENTER": 196.0051, "MEAN_ANOMALY": 342.734, "EPHEMERIS_TYPE": 0, "CLASSIFICATION_TYPE": "U", "NORAD_CAT_ID": 35586, "ELEMENT_SET_NO": 999, "REV_AT_EPOCH": 60246, "BSTAR": 0.00045411914, "MEAN_MOTION_DOT": 4.79e-06, "MEAN_MOTION_DDOT": 0}, "tle": {"line1": "1 35586U 93036AMD 25336.70073071  .00000479  00000+0  45412-3 0  9990", "line2": "2 35586  74.0205 318.5607 0405115 196.0051 342.7340 13.52074918602466"}}, "geometry": {"type": "Point", "coordinates": [-34.04872106726314, 47.54293665679509]}}, {"type": "Feature", "properties": {"norad_id": 35587, "name": "COSMOS 2251 DEB", "group": "cosmos-2251-debris", "lat": -34.7831806198819, "lon": 53.2812099660969, "alt_km": 637.416480361584, "timestamp": "2025-12-09T11:33:55.197448+00:00", "meta": {"OBJECT_NAME": "COSMOS 2251 DEB", "OBJECT_ID": "1993-036AME", "EPOCH": "2025-12-08T22:40:36.984000", "MEAN_MOTION": 14.71496851, "ECCENTRICITY": 0.0102808, "INCLINATION": 74.0064, "RA_OF_ASC_NODE": 65.8177, "ARG_OF_PERICENTER": 254.3493, "MEAN_ANOMALY": 104.6316, "EPHEMERIS_TYPE": 0, "CLASSIFICATION_TYPE": "U", "NORAD_CAT_ID": 35587, "ELEMENT_SET_NO": 999, "REV_AT_EPOCH": 66290, "BSTAR": 0.00040626, "MEAN_MOTION_DOT": 2.702e-05, "MEAN_MOTION_DDOT": 0}, "tle": {"line1": "1 35587U 93036AME 25342.94487250  .00002702  00000+0  40626-3 0  9995", "line2": "2 35587  74.0064  65.8177 0102808 254.3493 104.6316 14.71496851662904"}}, "geometry": {"type": "Point", "coordinates": [53.2812099660969, -34.7831806198819]}}]}